[{"OBJECT_NAME":"IRIDIUM 157","OBJECT_ID":"2018-030C","EPOCH":"2026-03-09T18:23:07.333440","MEAN_MOTION":14.34217888,"ECCENTRICITY":0.00021073,"INCLINATION":86.4009,"RA_OF_ASC_NODE":332.0022,"ARG_OF_PERICENTER":83.0005,"MEAN_ANOMALY":277.143,"EPHEMERIS_TYPE":0,"CLASSIFICATION_TYPE":"U","NORAD_CAT_ID":43251,"ELEMENT_SET_NO":999,"REV_AT_EPOCH":41588,"BSTAR":0.00012008452,"MEAN_MOTION_DOT":3.56e-6,"MEAN_MOTION_DDOT":0},{"OBJECT_NAME":"SL-18 R\/B","OBJECT_ID":"1993-014B","EPOCH":"2026-03-09T20:00:04.038912","MEAN_MOTION":14.30577065,"ECCENTRICITY":0.01616687,"INCLINATION":75.7636,"RA_OF_ASC_NODE":329.0984,"ARG_OF_PERICENTER":107.2027,"MEAN_ANOMALY":254.6901,"EPHEMERIS_TYPE":0,"CLASSIFICATION_TYPE":"U","NORAD_CAT_ID":22562,"ELEMENT_SET_NO":999,"REV_AT_EPOCH":71762,"BSTAR":0.00011061705,"MEAN_MOTION_DOT":3.2e-6,"MEAN_MOTION_DDOT":0}]
